start=new Date('2021-11-16T00:00:00.000Z').valueOf();
sats=[{"APOAPSIS":"548.217","MEAN_ANOMALY":"273.0923","SITE":"AFETR","MEAN_ELEMENT_THEORY":"SGP4","COUNTRY_CODE":"US","ARG_OF_PERICENTER":"87.0232","RA_OF_ASC_NODE":"81.5495","MEAN_MOTION_DDOT":"0.0000000000000","FILE":"3215928","RCS_SIZE":"LARGE","MEAN_MOTION":"15.06401241","MEAN_MOTION_DOT":"0.00000940","PERIOD":"95.592","NORAD_CAT_ID":"47781","CLASSIFICATION_TYPE":"U","SEMIMAJOR_AXIS":"6925.345","EPHEMERIS_TYPE":"0","OBJECT_NAME":"STARLINK-2223","PERIAPSIS":"546.202","REF_FRAME":"TEME","GP_ID":"189837768","EPOCH":"2021-11-15T19:20:23.729280","INCLINATION":"53.0565","OBJECT_TYPE":"PAYLOAD","BSTAR":"0.00008197400000","ECCENTRICITY":"0.00014550","DECAY_DATE":null,"ELEMENT_SET_NO":"999","CENTER_NAME":"EARTH","REV_AT_EPOCH":"4036","TLE_LINE2":"2 47781  53.0565  81.5495 0001455  87.0232 273.0923 15.06401241 40365","TLE_LINE1":"1 47781U 21017BM  21319.80583020  .00000940  00000-0  81974-4 0  9996","TIME_SYSTEM":"UTC","OBJECT_ID":"2021-017BM","LAUNCH_DATE":"2021-03-04"},{"TLE_LINE2":"2 47787  53.0558 121.1746 0001832  79.7686 280.3509 15.06394083 39233","TLE_LINE1":"1 47787U 21018A   21319.89061660 -.00000721  00000-0 -29506-4 0  9995","CENTER_NAME":"EARTH","REV_AT_EPOCH":"3923","LAUNCH_DATE":"2021-03-11","TIME_SYSTEM":"UTC","OBJECT_ID":"2021-018A","GP_ID":"189838018","ECCENTRICITY":"0.00018320","DECAY_DATE":null,"ELEMENT_SET_NO":"999","EPOCH":"2021-11-15T21:22:29.274240","INCLINATION":"53.0558","BSTAR":"-0.00002950600000","OBJECT_TYPE":"PAYLOAD","MEAN_MOTION_DOT":"-0.00000721","PERIOD":"95.593","CLASSIFICATION_TYPE":"U","NORAD_CAT_ID":"47787","SEMIMAJOR_AXIS":"6925.367","MEAN_MOTION":"15.06394083","REF_FRAME":"TEME","EPHEMERIS_TYPE":"0","OBJECT_NAME":"STARLINK-2257","PERIAPSIS":"545.963","MEAN_ANOMALY":"280.3509","SITE":"AFETR","MEAN_ELEMENT_THEORY":"SGP4","COUNTRY_CODE":"US","ARG_OF_PERICENTER":"79.7686","RA_OF_ASC_NODE":"121.1746","APOAPSIS":"548.500","RCS_SIZE":"LARGE","MEAN_MOTION_DDOT":"0.0000000000000","FILE":"3215928"},{"FILE":"3215928","MEAN_MOTION_DDOT":"0.0000000000000","RCS_SIZE":"MEDIUM","APOAPSIS":"555.822","RA_OF_ASC_NODE":"96.6230","ARG_OF_PERICENTER":"83.3248","COUNTRY_CODE":"US","MEAN_ANOMALY":"276.7922","SITE":"AFETR","MEAN_ELEMENT_THEORY":"SGP4","PERIAPSIS":"553.612","EPHEMERIS_TYPE":"0","OBJECT_NAME":"STARLINK-2314","REF_FRAME":"TEME","MEAN_MOTION":"15.03955049","SEMIMAJOR_AXIS":"6932.852","PERIOD":"95.748","NORAD_CAT_ID":"47788","CLASSIFICATION_TYPE":"U","MEAN_MOTION_DOT":"-0.00000826","BSTAR":"-0.00003947300000","OBJECT_TYPE":"PAYLOAD","EPOCH":"2021-11-15T15:49:06.305664","INCLINATION":"53.0594","ELEMENT_SET_NO":"999","DECAY_DATE":null,"ECCENTRICITY":"0.00015940","GP_ID":"189838270","TIME_SYSTEM":"UTC","OBJECT_ID":"2021-018B","LAUNCH_DATE":"2021-03-11","REV_AT_EPOCH":"3957","CENTER_NAME":"EARTH","TLE_LINE1":"1 47788U 21018B   21319.65910076 -.00000826  00000-0 -39473-4 0  9994","TLE_LINE2":"2 47788  53.0594  96.6230 0001594  83.3248 276.7922 15.03955049 39575"},{"TIME_SYSTEM":"UTC","OBJECT_ID":"2021-018C","LAUNCH_DATE":"2021-03-11","REV_AT_EPOCH":"3951","CENTER_NAME":"EARTH","TLE_LINE1":"1 47789U 21018C   21319.81873591  .00000655  00000-0  62848-4 0  9993","TLE_LINE2":"2 47789  53.0573 101.4862 0001454  91.3714 268.7441 15.06406896 39516","OBJECT_TYPE":"PAYLOAD","BSTAR":"0.00006284800000","EPOCH":"2021-11-15T19:38:58.782624","INCLINATION":"53.0573","ELEMENT_SET_NO":"999","DECAY_DATE":null,"ECCENTRICITY":"0.00014540","GP_ID":"189838521","PERIAPSIS":"546.185","OBJECT_NAME":"STARLINK-2315","EPHEMERIS_TYPE":"0","REF_FRAME":"TEME","MEAN_MOTION":"15.06406896","SEMIMAJOR_AXIS":"6925.327","PERIOD":"95.592","NORAD_CAT_ID":"47789","CLASSIFICATION_TYPE":"U","MEAN_MOTION_DOT":"0.00000655","FILE":"3215928","MEAN_MOTION_DDOT":"0.0000000000000","RCS_SIZE":"LARGE","APOAPSIS":"548.199","RA_OF_ASC_NODE":"101.4862","ARG_OF_PERICENTER":"91.3714","COUNTRY_CODE":"US","SITE":"AFETR","MEAN_ANOMALY":"268.7441","MEAN_ELEMENT_THEORY":"SGP4"},{"PERIAPSIS":"545.812","EPHEMERIS_TYPE":"0","OBJECT_NAME":"STARLINK-2319","REF_FRAME":"TEME","MEAN_MOTION":"15.06401603","SEMIMAJOR_AXIS":"6925.344","MEAN_MOTION_DOT":"0.00001299","PERIOD":"95.592","CLASSIFICATION_TYPE":"U","NORAD_CAT_ID":"47790","MEAN_MOTION_DDOT":"0.0000000000000","FILE":"3215928","RCS_SIZE":"LARGE","APOAPSIS":"548.605","ARG_OF_PERICENTER":"71.2679","RA_OF_ASC_NODE":"92.1969","SITE":"AFETR","MEAN_ANOMALY":"288.8529","MEAN_ELEMENT_THEORY":"SGP4","COUNTRY_CODE":"US","TIME_SYSTEM":"UTC","OBJECT_ID":"2021-018D","LAUNCH_DATE":"2021-03-11","REV_AT_EPOCH":"3963","CENTER_NAME":"EARTH","TLE_LINE2":"2 47790  53.0555  92.1969 0002016  71.2679 288.8529 15.06401603 39638","TLE_LINE1":"1 47790U 21018D   21319.66115563  .00001299  00000-0  10612-3 0  9992","INCLINATION":"53.0555","EPOCH":"2021-11-15T15:52:03.846432","OBJECT_TYPE":"PAYLOAD","BSTAR":"0.00010612000000","ELEMENT_SET_NO":"999","ECCENTRICITY":"0.00020160","DECAY_DATE":null,"GP_ID":"189837269"},{"TLE_LINE1":"1 47791U 21018E   21319.87954925  .00000499  00000-0  52387-4 0  9996","TLE_LINE2":"2 47791  53.0568 121.2170 0001545  85.0585 275.0581 15.06406633 39247","CENTER_NAME":"EARTH","REV_AT_EPOCH":"3924","LAUNCH_DATE":"2021-03-11","OBJECT_ID":"2021-018E","TIME_SYSTEM":"UTC","GP_ID":"189837519","DECAY_DATE":null,"ECCENTRICITY":"0.00015450","ELEMENT_SET_NO":"999","BSTAR":"0.00005238700000","OBJECT_TYPE":"PAYLOAD","EPOCH":"2021-11-15T21:06:33.055200","INCLINATION":"53.0568","PERIOD":"95.592","NORAD_CAT_ID":"47791","CLASSIFICATION_TYPE":"U","MEAN_MOTION_DOT":"0.00000499","SEMIMAJOR_AXIS":"6925.328","MEAN_MOTION":"15.06406633","REF_FRAME":"TEME","OBJECT_NAME":"STARLINK-2322","EPHEMERIS_TYPE":"0","PERIAPSIS":"546.123","COUNTRY_CODE":"US","SITE":"AFETR","MEAN_ELEMENT_THEORY":"SGP4","MEAN_ANOMALY":"275.0581","RA_OF_ASC_NODE":"121.2170","ARG_OF_PERICENTER":"85.0585","APOAPSIS":"548.263","RCS_SIZE":"LARGE","FILE":"3215928","MEAN_MOTION_DDOT":"0.0000000000000"},{"GP_ID":"189838770","EPOCH":"2021-11-15T19:49:38.067456","INCLINATION":"53.0566","BSTAR":"0.00009699500000","OBJECT_TYPE":"PAYLOAD","ECCENTRICITY":"0.00014630","DECAY_DATE":null,"ELEMENT_SET_NO":"999","CENTER_NAME":"EARTH","REV_AT_EPOCH":"3951","TLE_LINE2":"2 47792  53.0566 101.4576 0001463  84.4645 275.6511 15.06402358 39514","TLE_LINE1":"1 47792U 21018F   21319.82613504  .00001164  00000-0  96995-4 0  9990","TIME_SYSTEM":"UTC","OBJECT_ID":"2021-018F","LAUNCH_DATE":"2021-03-11","APOAPSIS":"548.220","SITE":"AFETR","MEAN_ELEMENT_THEORY":"SGP4","MEAN_ANOMALY":"275.6511","COUNTRY_CODE":"US","ARG_OF_PERICENTER":"84.4645","RA_OF_ASC_NODE":"101.4576","MEAN_MOTION_DDOT":"0.0000000000000","FILE":"3215928","RCS_SIZE":"LARGE","MEAN_MOTION":"15.06402358","MEAN_MOTION_DOT":"0.00001164","CLASSIFICATION_TYPE":"U","PERIOD":"95.592","NORAD_CAT_ID":"47792","SEMIMAJOR_AXIS":"6925.341","OBJECT_NAME":"STARLINK-2334","EPHEMERIS_TYPE":"0","PERIAPSIS":"546.193","REF_FRAME":"TEME"},{"CLASSIFICATION_TYPE":"U","PERIOD":"95.592","NORAD_CAT_ID":"47793","MEAN_MOTION_DOT":"0.00000916","SEMIMAJOR_AXIS":"6925.338","MEAN_MOTION":"15.06403365","REF_FRAME":"TEME","EPHEMERIS_TYPE":"0","OBJECT_NAME":"STARLINK-2338","PERIAPSIS":"546.278","COUNTRY_CODE":"US","SITE":"AFETR","MEAN_ANOMALY":"267.8602","MEAN_ELEMENT_THEORY":"SGP4","RA_OF_ASC_NODE":"101.3800","ARG_OF_PERICENTER":"92.2540","APOAPSIS":"548.128","RCS_SIZE":"LARGE","FILE":"3215928","MEAN_MOTION_DDOT":"0.0000000000000","TLE_LINE1":"1 47793U 21018G   21319.84084829  .00000916  00000-0  80381-4 0  9991","TLE_LINE2":"2 47793  53.0557 101.3800 0001336  92.2540 267.8602 15.06403365 39506","CENTER_NAME":"EARTH","REV_AT_EPOCH":"3950","LAUNCH_DATE":"2021-03-11","OBJECT_ID":"2021-018G","TIME_SYSTEM":"UTC","GP_ID":"189839021","DECAY_DATE":null,"ECCENTRICITY":"0.00013360","ELEMENT_SET_NO":"999","OBJECT_TYPE":"PAYLOAD","BSTAR":"0.00008038100000","INCLINATION":"53.0557","EPOCH":"2021-11-15T20:10:49.292256"},{"GP_ID":"189837769","OBJECT_TYPE":"PAYLOAD","BSTAR":"0.00007852700000","INCLINATION":"53.0572","EPOCH":"2021-11-15T18:40:34.992192","ELEMENT_SET_NO":"999","DECAY_DATE":null,"ECCENTRICITY":"0.00014220","REV_AT_EPOCH":"3950","CENTER_NAME":"EARTH","TLE_LINE1":"1 47794U 21018H   21319.77818278  .00000888  00000-0  78527-4 0  9994","TLE_LINE2":"2 47794  53.0572 101.6774 0001422  82.7941 277.3209 15.06403131 39502","TIME_SYSTEM":"UTC","OBJECT_ID":"2021-018H","LAUNCH_DATE":"2021-03-11","APOAPSIS":"548.189","RA_OF_ASC_NODE":"101.6774","ARG_OF_PERICENTER":"82.7941","COUNTRY_CODE":"US","SITE":"AFETR","MEAN_ELEMENT_THEORY":"SGP4","MEAN_ANOMALY":"277.3209","FILE":"3215928","MEAN_MOTION_DDOT":"0.0000000000000","RCS_SIZE":"LARGE","MEAN_MOTION":"15.06403131","SEMIMAJOR_AXIS":"6925.339","CLASSIFICATION_TYPE":"U","PERIOD":"95.592","NORAD_CAT_ID":"47794","MEAN_MOTION_DOT":"0.00000888","PERIAPSIS":"546.219","EPHEMERIS_TYPE":"0","OBJECT_NAME":"STARLINK-2341","REF_FRAME":"TEME"},{"RCS_SIZE":"LARGE","FILE":"3215928","MEAN_MOTION_DDOT":"0.0000000000000","COUNTRY_CODE":"US","SITE":"AFETR","MEAN_ELEMENT_THEORY":"SGP4","MEAN_ANOMALY":"263.3643","RA_OF_ASC_NODE":"101.4174","ARG_OF_PERICENTER":"96.7489","APOAPSIS":"548.071","REF_FRAME":"TEME","OBJECT_NAME":"STARLINK-2347","EPHEMERIS_TYPE":"0","PERIAPSIS":"546.325","PERIOD":"95.592","CLASSIFICATION_TYPE":"U","NORAD_CAT_ID":"47795","MEAN_MOTION_DOT":"-0.00000660","SEMIMAJOR_AXIS":"6925.333","MEAN_MOTION":"15.06405141","DECAY_DATE":null,"ECCENTRICITY":"0.00012610","ELEMENT_SET_NO":"999","OBJECT_TYPE":"PAYLOAD","BSTAR":"-0.00002538700000","INCLINATION":"53.0562","EPOCH":"2021-11-15T20:00:12.268512","GP_ID":"189838019","LAUNCH_DATE":"2021-03-11","OBJECT_ID":"2021-018J","TIME_SYSTEM":"UTC","TLE_LINE1":"1 47795U 21018J   21319.83347533 -.00000660  00000-0 -25387-4 0  9999","TLE_LINE2":"2 47795  53.0562 101.4174 0001261  96.7489 263.3643 15.06405141 39563","CENTER_NAME":"EARTH","REV_AT_EPOCH":"3956"}];
